SL-12 R/B(2)            
1 15772U 85042D   26163.74380014  .00000014  00000+0  27656-4 0  9990
2 15772  71.1081 246.9040 0036072 334.5059 154.9080 14.22005153127903
SL-14 R/B               
1 15945U 85069B   26163.86114713  .00000415  00000+0  44116-4 0  9990
2 15945  82.5267 295.4346 0017509 234.3933 125.5654 14.86512496186973
SL-16 R/B               
1 16182U 85097B   26163.82878303 -.00000247  00000+0 -99813-4 0  9992
2 16182  71.0036 300.2539 0005458 120.4950 350.3724 14.16611240100700
SL-14 R/B               
1 16496U 86006B   26163.74477381  .00000575  00000+0  58350-4 0  9996
2 16496  82.5261 170.2939 0075242 318.4563  41.0950 14.86941555163336
COSMOS 1743             
1 16719U 86034A   26162.97329097  .00046212  00000+0  44237-3 0  9995
2 16719  82.5272 334.2751 0003761 295.8467  64.2405 15.66480460194976
SL-14 R/B               
1 16792U 86046B   26163.23623746  .00000371  00000+0  39960-4 0  9991
2 16792  82.4816 350.8543 0021577 276.0160  83.8597 14.85667954140446
SL-14 R/B               
1 16882U 86055B   26163.17191872  .00000385  00000+0  41395-4 0  9994
2 16882  82.5208  37.8484 0019512  23.9417  93.8076 14.85720016133396
AJISAI (EGS)            
1 16908U 86061A   26163.79638159 -.00000090  00000+0  54529-4 0  9999
2 16908  50.0063 160.8968 0011240 169.4528 248.7000 12.44516800479845
SL-14 R/B               
1 17567U 87024B   26163.84125078  .00000379  00000+0  40279-4 0  9994
2 17567  82.5281   3.3360 0017003 308.7928  51.1769 14.86210621102268
COSMOS 1833             
1 17589U 87027A   26163.29458906  .00000317  00000+0  19504-3 0  9997
2 17589  70.9169 127.1523 0022674  63.2549 297.0889 14.13046317 23687
SL-16 R/B               
1 17590U 87027B   26163.83990358 -.00000108  00000+0 -29653-4 0  9998
2 17590  71.0034  75.9894 0006356 317.3553  42.7077 14.17172675 28826
SL-14 R/B               
1 17912U 87038B   26163.14414169  .00000293  00000+0  31118-4 0  9995
2 17912  82.5011 207.8225 0018444 208.2999 151.7217 14.85442256 93259
COSMOS 1844             
1 17973U 87041A   26163.79357367 -.00000158  00000+0 -56600-4 0  9998
2 17973  70.8975 193.5752 0033097 241.9262 117.8513 14.14568988 17036
SL-14 R/B               
1 18153U 87055B   26163.30659979  .00000371  00000+0  39785-4 0  9995
2 18153  82.4995 259.8297 0021962  62.8957 297.4496 14.85707970 83983
COSMOS 1867             
1 18187U 87060A   26163.80184841 -.00000038  00000+0  23506-4 0  9999
2 18187  65.0115  40.3403 0016429 282.0921  77.8323 14.31515354 33553
SL-14 R/B               
1 18749U 88001B   26163.84709712  .00000397  00000+0  43022-4 0  9995
2 18749  82.5130 105.8565 0016499 285.3038  74.6354 14.85606761 56158
COSMOS 1933             
1 18958U 88020A   26163.22770224  .00003108  00000+0  14848-3 0  9992
2 18958  82.5116 157.3462 0002952 205.5008 154.6081 15.18683048 64573
SL-3 R/B                
1 19046U 88032B   26163.83480705  .00004361  00000+0  19957-3 0  9991
2 19046  97.5248 146.8798 0023656 261.3254  98.5301 15.20809268 66565
SL-16 R/B               
1 19120U 88039B   26163.25896941 -.00000101  00000+0 -24975-4 0  9997
2 19120  71.0142 228.5789 0022538 200.4124 159.6103 14.19629583971802
COSMOS 1953             
1 19210U 88050A   26163.76749979  .00008067  00000+0  27685-3 0  9991
2 19210  82.5086  62.4911 0011823 139.8947 220.3168 15.29919077 52316
SL-8 R/B                
1 19257U 88053B   26163.84449969  .00000155  00000+0  58649-4 0  9995
2 19257  74.0479 297.0623 0019171  93.9812  20.2700 14.38965888990286
COSMOS 1975             
1 19573U 88093A   26163.05066213  .00006286  00000+0  21996-3 0  9995
2 19573  82.5200  22.8693 0010783 189.4509 170.6530 15.29261235 33823
SL-14 R/B               
1 19574U 88093B   26163.83773020  .00000423  00000+0  45719-4 0  9990
2 19574  82.5308 312.7284 0022181  83.8602  30.7696 14.85738730 15140
SL-16 R/B               
1 19650U 88102B   26163.83781985 -.00000237  00000+0 -95354-4 0  9990
2 19650  71.0003 311.2910 0015971 231.5481 128.4209 14.16165577940369
INTERCOSMOS 24          
1 20261U 89080A   26163.17171275  .00000866  00000+0  24566-3 0  9990
2 20261  82.6070  42.9082 1188403  73.5328 299.2807 12.59654110678691
SL-14 R/B               
1 20262U 89080C   26163.84249330  .00000330  00000+0  98639-4 0  9992
2 20262  82.5927 112.0988 1228976 327.3447  25.7064 12.50568370672041
DELTA 1 R/B             
1 20323U 89089B   26163.80500262  .00000323  00000+0  88320-4 0  9997
2 20323  97.0637 356.0645 0068849 180.7801 179.3301 14.50728724909522
ARIANE 40 R/B           
1 20443U 90005H   26163.18050750  .00000227  00000+0  85644-4 0  9992
2 20443  98.2959 220.9519 0008819 281.6761  78.3437 14.39924951906400
DELTA 2 R/B(1)          
1 20453U 90008B   26163.73511683  .00091224  00000+0  69149-3 0  9992
2 20453  35.6001 265.4282 0065836  72.0134 288.7768 15.68148996941002
COSMOS 2058             
1 20465U 90010A   26163.83381530  .00003874  00000+0  22394-3 0  9990
2 20465  82.4664 313.6481 0009772  16.3145 343.8398 15.11984150956610
