OBJECT_NAME,OBJECT_ID,EPOCH,MEAN_MOTION,ECCENTRICITY,INCLINATION,RA_OF_ASC_NODE,ARG_OF_PERICENTER,MEAN_ANOMALY,EPHEMERIS_TYPE,CLASSIFICATION_TYPE,NORAD_CAT_ID,ELEMENT_SET_NO,REV_AT_EPOCH,BSTAR,MEAN_MOTION_DOT,MEAN_MOTION_DDOT
SL-12 R/B(2),1985-042D,2026-06-12T17:51:04.332096,14.22005153,.0036072,71.1081,246.9040,334.5059,154.9080,0,U,15772,999,12790,.27656E-4,.14E-6,0
SL-14 R/B,1985-069B,2026-06-12T20:40:03.112032,14.86512496,.0017509,82.5267,295.4346,234.3933,125.5654,0,U,15945,999,18697,.44116E-4,.415E-5,0
SL-16 R/B,1985-097B,2026-06-12T19:53:26.853792,14.16611240,.0005458,71.0036,300.2539,120.4950,350.3724,0,U,16182,999,10070,-.99813E-4,-.247E-5,0
SL-14 R/B,1986-006B,2026-06-12T17:52:28.457184,14.86941555,.0075242,82.5261,170.2939,318.4563,41.0950,0,U,16496,999,16333,.5835E-4,.575E-5,0
COSMOS 1743,1986-034A,2026-06-11T23:21:32.339808,15.66480460,.00037619,82.5272,334.2751,295.8467,64.2405,0,U,16719,999,19497,.44237142E-3,.46212E-3,0
SL-14 R/B,1986-046B,2026-06-12T05:40:10.916544,14.85667954,.00215777,82.4816,350.8543,276.0160,83.8597,0,U,16792,999,14044,.39960009E-4,.371E-5,0
SL-14 R/B,1986-055B,2026-06-12T04:07:33.777408,14.85720016,.00195123,82.5208,37.8484,23.9417,93.8076,0,U,16882,999,13339,.41395222E-4,.385E-5,0
AJISAI (EGS),1986-061A,2026-06-12T19:06:47.369376,12.44516800,.001124,50.0063,160.8968,169.4528,248.7000,0,U,16908,999,47984,.54529E-4,-.9E-6,0
SL-14 R/B,1987-024B,2026-06-12T20:11:24.067392,14.86210621,.0017003,82.5281,3.3360,308.7928,51.1769,0,U,17567,999,10226,.40279E-4,.379E-5,0
COSMOS 1833,1987-027A,2026-06-12T07:04:12.494784,14.13046317,.00226747,70.9169,127.1523,63.2549,297.0889,0,U,17589,999,2368,.19503877E-3,.317E-5,0
SL-16 R/B,1987-027B,2026-06-12T20:09:27.669312,14.17172675,.0006356,71.0034,75.9894,317.3553,42.7077,0,U,17590,999,2882,-.29653E-4,-.108E-5,0
SL-14 R/B,1987-038B,2026-06-12T03:27:33.842016,14.85442256,.00184444,82.5011,207.8225,208.2999,151.7217,0,U,17912,999,9325,.31118184E-4,.293E-5,0
COSMOS 1844,1987-041A,2026-06-12T19:02:44.765088,14.14568988,.0033097,70.8975,193.5752,241.9262,117.8513,0,U,17973,999,1703,-.566E-4,-.158E-5,0
SL-14 R/B,1987-055B,2026-06-12T07:21:30.221856,14.85707970,.00219622,82.4995,259.8297,62.8957,297.4496,0,U,18153,999,8398,.39784784E-4,.371E-5,0
COSMOS 1867,1987-060A,2026-06-12T19:14:39.702624,14.31515354,.0016429,65.0115,40.3403,282.0921,77.8323,0,U,18187,999,3355,.23506E-4,-.38E-6,0
SL-14 R/B,1988-001B,2026-06-12T20:19:49.191168,14.85606761,.0016499,82.5130,105.8565,285.3038,74.6354,0,U,18749,999,5615,.43022E-4,.397E-5,0
COSMOS 1933,1988-020A,2026-06-12T05:27:53.473536,15.18683048,.00029524,82.5116,157.3462,205.5008,154.6081,0,U,18958,999,6457,.14848218E-3,.3108E-4,0
SL-3 R/B,1988-032B,2026-06-12T20:02:07.329120,15.20809268,.0023656,97.5248,146.8798,261.3254,98.5301,0,U,19046,999,6656,.19957E-3,.4361E-4,0
SL-16 R/B,1988-039B,2026-06-12T06:12:54.957024,14.19629583,.00225386,71.0142,228.5789,200.4124,159.6103,0,U,19120,999,97180,-.24974588E-4,-.101E-5,0
COSMOS 1953,1988-050A,2026-06-12T18:25:11.981856,15.29919077,.0011823,82.5086,62.4911,139.8947,220.3168,0,U,19210,999,5231,.27685E-3,.8067E-4,0
SL-8 R/B,1988-053B,2026-06-12T20:16:04.773216,14.38965888,.0019171,74.0479,297.0623,93.9812,20.2700,0,U,19257,999,99028,.58649E-4,.155E-5,0
COSMOS 1975,1988-093A,2026-06-12T01:12:57.208032,15.29261235,.00107836,82.5200,22.8693,189.4509,170.6530,0,U,19573,999,3382,.21996372E-3,.6286E-4,0
SL-14 R/B,1988-093B,2026-06-12T20:06:19.889280,14.85738730,.0022181,82.5308,312.7284,83.8602,30.7696,0,U,19574,999,1514,.45719E-4,.423E-5,0
SL-16 R/B,1988-102B,2026-06-12T20:06:27.635040,14.16165577,.0015971,71.0003,311.2910,231.5481,128.4209,0,U,19650,999,94036,-.95354E-4,-.237E-5,0
INTERCOSMOS 24,1989-080A,2026-06-12T04:07:15.981600,12.59654110,.11884037,82.6070,42.9082,73.5328,299.2807,0,U,20261,999,67869,.24565788E-3,.866E-5,0
SL-14 R/B,1989-080C,2026-06-12T20:13:11.421120,12.50568370,.1228976,82.5927,112.0988,327.3447,25.7064,0,U,20262,999,67204,.98639E-4,.33E-5,0
DELTA 1 R/B,1989-089B,2026-06-12T19:19:12.226368,14.50728724,.0068849,97.0637,356.0645,180.7801,179.3301,0,U,20323,999,90952,.8832E-4,.323E-5,0
ARIANE 40 R/B,1990-005H,2026-06-12T04:19:55.848000,14.39924951,.00088197,98.2959,220.9519,281.6761,78.3437,0,U,20443,999,90640,.85643721E-4,.227E-5,0
DELTA 2 R/B(1),1990-008B,2026-06-12T17:38:34.094112,15.68148996,.0065836,35.6001,265.4282,72.0134,288.7768,0,U,20453,999,94100,.69149E-3,.91224E-3,0
COSMOS 2058,1990-010A,2026-06-12T20:00:41.641920,15.11984150,.0009772,82.4664,313.6481,16.3145,343.8398,0,U,20465,999,95661,.22394E-3,.3874E-4,0
